OBJECT_NAME,OBJECT_ID,EPOCH,MEAN_MOTION,ECCENTRICITY,INCLINATION,RA_OF_ASC_NODE,ARG_OF_PERICENTER,MEAN_ANOMALY,EPHEMERIS_TYPE,CLASSIFICATION_TYPE,NORAD_CAT_ID,ELEMENT_SET_NO,REV_AT_EPOCH,BSTAR,MEAN_MOTION_DOT,MEAN_MOTION_DDOT
STARLINK-30092,2023-107L,2026-06-07T18:47:37.978080,15.27558605,2.957e-05,43.0048,187.476,47.1119,312.9758,0,U,57467,999,15892,-6.0835465e-05,-1.9340000000000005e-05,0.0
STARLINK-30039,2023-107M,2026-06-07T18:53:08.655936,15.27572894,0.00015737,43.0046,187.5101,273.4124,86.6547,0,U,57468,999,15892,-1.7813376000000002e-05,-7.519999999999999e-06,0.0
STARLINK-30171,2023-107N,2026-06-07T08:56:00.519072,15.2759461,0.00017145,43.0011,192.9657,259.3325,100.7334,0,U,57469,999,15882,0.00015036430999999998,3.88e-05,0.0
STARLINK-30186,2023-107P,2026-06-08T06:00:04.000320,15.33668492,0.00011449999999999999,42.9991,192.5492,275.2167,121.2306,0,U,57470,999,584,0.0009308818,0.00030802,0.0
STARLINK-30204,2023-107R,2026-06-07T18:27:14.130720,15.27576596,0.00013295,43.0018,187.3698,282.1792,77.8911,0,U,57472,999,15892,1.785122e-05,2.29e-06,0.0
STARLINK-30155,2023-107U,2026-06-08T01:41:00.712032,15.27577009,0.0001752,43.0036,185.3368,260.2034,99.862,0,U,57475,999,15897,1.4993965000000002e-05,1.5e-06,0.0
STARLINK-30161,2023-107V,2026-06-07T08:30:48.209760,15.27603357,0.00019849,43.0043,189.428,266.6615,93.40090000000001,0,U,57476,999,15886,0.00014864413999999998,3.833000000000001e-05,0.0
STARLINK-30176,2023-107W,2026-06-08T06:34:34.853664,15.27577,0.00018823,43.0002,184.2832,263.3672,96.6965,0,U,57477,999,15900,0.00034411155,9.218e-05,0.0
JUPITER 3 (ECHOSTAR 24),2023-108A,2026-06-06T13:21:04.385664,1.00270321,0.00011738,0.019700000000000002,338.3633,95.9959,285.6537,0,U,57479,999,1054,0.0,0.0,0.0
FENGYUN 3F,2023-111A,2026-06-08T05:40:35.173344,14.19937637,0.00015742,98.6836,229.4117,99.364,260.7714,0,U,57490,999,14759,4.5834163e-05,5.4e-07,0.0
GALAXY 37 (G-37),2023-112A,2026-06-08T05:56:05.958816,1.00271647,0.00019743,0.018000000000000002,341.0688,97.3857,140.216,0,U,57493,999,1045,0.0,6.4e-07,0.0
STARLINK-30154,2023-113A,2026-06-08T07:00:38.708352,15.27575626,0.00015387000000000002,43.0056,224.2218,269.8461,90.2214,0,U,57495,999,15737,2.881564e-06,-1.83e-06,0.0
STARLINK-30145,2023-113B,2026-06-07T21:56:03.791328,15.2758325,0.00016523000000000002,43.0019,226.5405,242.6153,117.4531,0,U,57496,999,15736,7.1377939e-05,1.703e-05,0.0
STARLINK-30226,2023-113C,2026-06-07T22:01:38.729568,15.27559205,0.00013173000000000001,42.9986,226.5842,216.3159,143.7603,0,U,57497,999,15737,6.253760200000001e-05,1.4580000000000001e-05,0.0
STARLINK-30203,2023-113D,2026-06-06T12:31:00.628320,15.27582028,0.00030741,43.0073,234.1636,279.6774,80.3731,0,U,57498,999,15728,2.3694843e-05,3.89e-06,0.0
STARLINK-30169,2023-113E,2026-06-01T14:07:45.412320,15.27559407,0.00020247,43.0031,248.0694,258.0181,102.0443,0,U,57499,999,15651,0.00012349205,3.135e-05,0.0
STARLINK-30164,2023-113F,2026-06-07T10:55:07.513248,15.27563604,0.00019833,43.0052,229.1238,297.5775,62.4876,0,U,57500,999,15740,-6.0223865e-05,-1.9180000000000003e-05,0.0
STARLINK-30072,2023-113G,2026-06-07T11:26:34.255968,15.2757289,0.00016693,43.0046,229.2719,279.6167,80.4496,0,U,57501,999,15729,-3.8065357000000006e-05,-1.309e-05,0.0
STARLINK-30230,2023-113J,2026-06-08T02:32:58.808544,15.27563948,0.00019099999999999998,43.0028,225.3922,259.1153,100.9484,0,U,57503,999,15739,0.00030657814,8.179000000000001e-05,0.0
STARLINK-30213,2023-113K,2026-06-07T21:02:36.414240,15.27582751,0.00015447,42.9942,227.1091,280.6608,79.407,0,U,57504,999,15746,5.255035e-06,-1.1699999999999998e-06,0.0
STARLINK-30227,2023-113L,2026-06-08T06:06:57.007008,15.250587490000001,0.00077486,43.0005,215.2253,31.5237,328.6077,0,U,57505,999,15763,0.00068399073,0.00017236,0.0
STARLINK-30212,2023-113M,2026-06-07T21:08:09.443904,15.27573387,0.00019433,42.9971,227.1404,264.2417,95.8213,0,U,57506,999,15730,-2.5478112000000002e-05,-9.630000000000001e-06,0.0
STARLINK-30219,2023-113N,2026-06-07T11:24:25.426656,15.31021778,0.00018409,42.9978,228.4043,352.5792,7.5034,0,U,57507,999,15741,0.0009186759699999999,0.00027944,0.0
STARLINK-30074,2023-113P,2026-06-06T11:39:23.712768,15.27620964,0.00054218,43.005,234.7388,276.2926,83.7308,0,U,57508,999,15704,0.00024628846,6.53e-05,0.0
STARLINK-30082,2023-113Q,2026-06-07T21:41:15.300384,15.27585028,9.168e-05,43.0041,226.4733,276.3743,83.7005,0,U,57509,999,15747,5.0191854e-05,1.1200000000000001e-05,0.0
STARLINK-30153,2023-113R,2026-06-06T12:18:04.042656,15.27584093,0.00016025,43.0008,234.1046,267.0328,93.034,0,U,57510,999,15715,6.7822732e-05,1.605e-05,0.0
STARLINK-30147,2023-113S,2026-06-07T21:30:12.166560,15.27535279,0.00013421,43.0073,226.4232,268.5842,91.4856,0,U,57511,999,15747,-0.00018699129,-5.397000000000001e-05,0.0
STARLINK-30157,2023-113T,2026-06-08T07:08:52.683072,15.27592907,0.00015365,43.0032,198.5715,278.7347,81.333,0,U,57512,999,15783,7.7713282e-05,1.8780000000000003e-05,0.0
STARLINK-30168,2023-113U,2026-06-07T21:24:36.280512,15.27571538,8.729e-05,42.9994,226.3566,262.9608,97.1144,0,U,57513,999,15731,-6.3334e-06,-4.36e-06,0.0
