STARLINK-30092          
1 57467U 23107L   26158.78307845 -.00001934  00000+0 -60835-4 0  9990
2 57467  43.0048 187.4760 0000295  47.1119 312.9758 15.27558605158926
STARLINK-30039          
1 57468U 23107M   26158.78690574 -.00000752  00000+0 -17813-4 0  9990
2 57468  43.0046 187.5101 0001573 273.4124  86.6547 15.27572894158922
STARLINK-30171          
1 57469U 23107N   26158.37222823  .00003880  00000+0  15036-3 0  9991
2 57469  43.0011 192.9657 0001714 259.3325 100.7334 15.27594610158825
STARLINK-30186          
1 57470U 23107P   26159.25004630  .00030802  00000+0  93088-3 0  9992
2 57470  42.9991 192.5492 0001145 275.2167 121.2306 15.33668492  5841
STARLINK-30204          
1 57472U 23107R   26158.76891355  .00000229  00000+0  17851-4 0  9992
2 57472  43.0018 187.3698 0001329 282.1792  77.8911 15.27576596158922
STARLINK-30155          
1 57475U 23107U   26159.07014713  .00000150  00000+0  14994-4 0  9993
2 57475  43.0036 185.3368 0001752 260.2034  99.8620 15.27577009158979
STARLINK-30161          
1 57476U 23107V   26158.35472465  .00003833  00000+0  14864-3 0  9992
2 57476  43.0043 189.4280 0001984 266.6615  93.4009 15.27603357158863
STARLINK-30176          
1 57477U 23107W   26159.27401451  .00009218  00000+0  34411-3 0  9995
2 57477  43.0002 184.2832 0001882 263.3672  96.6965 15.27577000159007
JUPITER 3 (ECHOSTAR 24) 
1 57479U 23108A   26157.55630076  .00000000  00000+0  00000+0 0  9997
2 57479   0.0197 338.3633 0001173  95.9959 285.6537  1.00270321 10540
FENGYUN 3F              
1 57490U 23111A   26159.23651821  .00000054  00000+0  45834-4 0  9990
2 57490  98.6836 229.4117 0001574  99.3640 260.7714 14.19937637147594
GALAXY 37 (G-37)        
1 57493U 23112A   26159.24729119  .00000064  00000+0  00000+0 0  9993
2 57493   0.0180 341.0688 0001974  97.3857 140.2160  1.00271647 10451
STARLINK-30154          
1 57495U 23113A   26159.29211468 -.00000183  00000+0  28816-5 0  9998
2 57495  43.0056 224.2218 0001538 269.8461  90.2214 15.27575626157371
STARLINK-30145          
1 57496U 23113B   26158.91393277  .00001703  00000+0  71378-4 0  9994
2 57496  43.0019 226.5405 0001652 242.6153 117.4531 15.27583250157363
STARLINK-30226          
1 57497U 23113C   26158.91780937  .00001458  00000+0  62538-4 0  9993
2 57497  42.9986 226.5842 0001317 216.3159 143.7603 15.27559205157378
STARLINK-30203          
1 57498U 23113D   26157.52153505  .00000389  00000+0  23695-4 0  9998
2 57498  43.0073 234.1636 0003074 279.6774  80.3731 15.27582028157288
STARLINK-30169          
1 57499U 23113E   26152.58872005  .00003135  00000+0  12349-3 0  9998
2 57499  43.0031 248.0694 0002024 258.0181 102.0443 15.27559407156510
STARLINK-30164          
1 57500U 23113F   26158.45494807 -.00001918  00000+0 -60224-4 0  9998
2 57500  43.0052 229.1238 0001983 297.5775  62.4876 15.27563604157402
STARLINK-30072          
1 57501U 23113G   26158.47678537 -.00001309  00000+0 -38065-4 0  9997
2 57501  43.0046 229.2719 0001669 279.6167  80.4496 15.27572890157290
STARLINK-30230          
1 57503U 23113J   26159.10623621  .00008179  00000+0  30658-3 0  9993
2 57503  43.0028 225.3922 0001910 259.1153 100.9484 15.27563948157392
STARLINK-30213          
1 57504U 23113K   26158.87681035 -.00000117  00000+0  52550-5 0  9992
2 57504  42.9942 227.1091 0001544 280.6608  79.4070 15.27582751157462
STARLINK-30227          
1 57505U 23113L   26159.25482647  .00017236  00000+0  68399-3 0  9999
2 57505  43.0005 215.2253 0007748  31.5237 328.6077 15.25058749157634
STARLINK-30212          
1 57506U 23113M   26158.88066486 -.00000963  00000+0 -25478-4 0  9990
2 57506  42.9971 227.1404 0001943 264.2417  95.8213 15.27573387157302
STARLINK-30219          
1 57507U 23113N   26158.47529429  .00027944  00000+0  91868-3 0  9998
2 57507  42.9978 228.4043 0001840 352.5792   7.5034 15.31021778157416
STARLINK-30074          
1 57508U 23113P   26157.48569112  .00006530  00000+0  24629-3 0  9991
2 57508  43.0050 234.7388 0005421 276.2926  83.7308 15.27620964157048
STARLINK-30082          
1 57509U 23113Q   26158.90364931  .00001120  00000+0  50192-4 0  9997
2 57509  43.0041 226.4733 0000916 276.3743  83.7005 15.27585028157475
STARLINK-30153          
1 57510U 23113R   26157.51254679  .00001605  00000+0  67823-4 0  9999
2 57510  43.0008 234.1046 0001602 267.0328  93.0340 15.27584093157154
STARLINK-30147          
1 57511U 23113S   26158.89597415 -.00005397  00000+0 -18699-3 0  9990
2 57511  43.0073 226.4232 0001342 268.5842  91.4856 15.27535279157477
STARLINK-30157          
1 57512U 23113T   26159.29783198  .00001878  00000+0  77713-4 0  9992
2 57512  43.0032 198.5715 0001536 278.7347  81.3330 15.27592907157832
STARLINK-30168          
1 57513U 23113U   26158.89208658 -.00000436  00000+0 -63334-5 0  9997
2 57513  42.9994 226.3566 0000872 262.9608  97.1144 15.27571538157317
